ONEWEB-0233             
1 48795U 21045AE  24327.60104603  .00000041  00000+0  74946-4 0  9991
2 48795  87.9097  13.0335 0001690  85.0866 275.0458 13.15545621169144
ONEWEB-0190             
1 48796U 21045AF  24327.58758552  .00000158  00000+0  38479-3 0  9996
2 48796  87.9093  12.9975 0001973  68.5010 291.6330 13.15546721169213
ONEWEB-0236             
1 48797U 21045AG  24327.22472143  .00000089  00000+0  20371-3 0  9992
2 48797  87.9102  13.0688 0001842  96.6081 263.5259 13.15545825169057
ONEWEB-0248             
1 48798U 21045AH  24327.16133628 -.00000109  00000+0 -32488-3 0  9995
2 48798  87.9092  13.0586 0001435  70.8888 289.2397 13.15546493169207
ONEWEB-0225             
1 48799U 21045AJ  24327.56381563  .00000017  00000+0  10116-4 0  9994
2 48799  87.9095  12.9985 0001883  81.5963 278.5381 13.15545995169268
ONEWEB-0215             
1 48800U 21045AK  24327.53370319 -.00000016  00000+0 -76824-4 0  9990
2 48800  87.9091  12.9691 0001663  68.9173 291.2135 13.15545915169136
ONEWEB-0216             
1 48801U 21045AL  24327.54320573 -.00000636  00000+0 -17242-2 0  9994
2 48801  87.9088  13.0108 0002081  92.3785 267.7584 13.15549813169141
ONEWEB-0239             
1 48802U 21045AM  24327.54795163 -.00000534  00000+0 -14533-2 0  9993
2 48802  87.9100  12.9986 0001383  66.3820 293.7455 13.15547910169180
